{
  "type": "FeatureCollection",
  "features": [
    {
      "type": "Feature",
      "properties": {
        "norad_id": 29930,
        "name": "FENGYUN 1C DEB",
        "group": "fengyun-1c-debris",
        "lat": 1.8556363851028188,
        "lon": -136.71807034398438,
        "alt_km": 776.3958596401144,
        "timestamp": "2025-12-07T11:27:50.274623+00:00",
        "meta_object_name": "FENGYUN 1C DEB",
        "meta_object_id": "1999-025JC",
        "meta_epoch": "2025-12-06T15:25:26.040000",
        "meta_mean_motion": 14.20806627,
        "meta_eccentricity": 0.0164629,
        "meta_inclination": 99.0446,
        "meta_ra_of_asc_node": 222.723,
        "meta_arg_of_pericenter": 70.8943,
        "meta_mean_anomaly": 344.2483,
        "meta_ephemeris_type": 0,
        "meta_classification_type": "U",
        "meta_norad_cat_id": 29930,
        "meta_element_set_no": 999,
        "meta_rev_at_epoch": 97804,
        "meta_bstar": 0.00041954574,
        "meta_mean_motion_dot": 9.93e-06,
        "meta_mean_motion_ddot": 0,
        "tle_line1": "1 29930U 99025JC  25340.64266250  .00000993  00000+0  41955-3 0  9990",
        "tle_line2": "2 29930  99.0446 222.7230 0164629  70.8943 344.2483 14.20806627978046"
      },
      "geometry": {
        "type": "Point",
        "coordinates": [
          -136.71807034398438,
          1.8556363851028188
        ]
      }
    },
    {
      "type": "Feature",
      "properties": {
        "norad_id": 29931,
        "name": "FENGYUN 1C DEB",
        "group": "fengyun-1c-debris",
        "lat": -34.24504779524509,
        "lon": 23.01484674738304,
        "alt_km": 905.2603935210254,
        "timestamp": "2025-12-07T11:27:50.274633+00:00",
        "meta_object_name": "FENGYUN 1C DEB",
        "meta_object_id": "1999-025JD",
        "meta_epoch": "2025-12-06T17:22:47.640864",
        "meta_mean_motion": 14.0388847,
        "meta_eccentricity": 0.00326659,
        "meta_inclination": 98.8601,
        "meta_ra_of_asc_node": 16.1851,
        "meta_arg_of_pericenter": 109.8913,
        "meta_mean_anomaly": 9.6227,
        "meta_ephemeris_type": 0,
        "meta_classification_type": "U",
        "meta_norad_cat_id": 29931,
        "meta_element_set_no": 999,
        "meta_rev_at_epoch": 96728,
        "meta_bstar": 0.00018171357,
        "meta_mean_motion_dot": 2.45e-06,
        "meta_mean_motion_ddot": 0,
        "tle_line1": "1 29931U 99025JD  25340.72416251  .00000245  00000+0  18171-3 0  9992",
        "tle_line2": "2 29931  98.8601  16.1851 0032665 109.8913   9.6227 14.03888470967284"
      },
      "geometry": {
        "type": "Point",
        "coordinates": [
          23.01484674738304,
          -34.24504779524509
        ]
      }
    },
    {
      "type": "Feature",
      "properties": {
        "norad_id": 29932,
        "name": "FENGYUN 1C DEB",
        "group": "fengyun-1c-debris",
        "lat": 4.694372691072317,
        "lon": 173.0341068805505,
        "alt_km": 838.542344641829,
        "timestamp": "2025-12-07T11:27:50.274643+00:00",
        "meta_object_name": "FENGYUN 1C DEB",
        "meta_object_id": "1999-025JE",
        "meta_epoch": "2025-12-06T11:39:00.388224",
        "meta_mean_motion": 14.16751854,
        "meta_eccentricity": 0.00386517,
        "meta_inclination": 98.6349,
        "meta_ra_of_asc_node": 351.3562,
        "meta_arg_of_pericenter": 87.9456,
        "meta_mean_anomaly": 68.8437,
        "meta_ephemeris_type": 0,
        "meta_classification_type": "U",
        "meta_norad_cat_id": 29932,
        "meta_element_set_no": 999,
        "meta_rev_at_epoch": 97495,
        "meta_bstar": 0.00049390279,
        "meta_mean_motion_dot": 9.53e-06,
        "meta_mean_motion_ddot": 0,
        "tle_line1": "1 29932U 99025JE  25340.48542116  .00000953  00000+0  49390-3 0  9999",
        "tle_line2": "2 29932  98.6349 351.3562 0038651  87.9456  68.8437 14.16751854974955"
      },
      "geometry": {
        "type": "Point",
        "coordinates": [
          173.0341068805505,
          4.694372691072317
        ]
      }
    },
    {
      "type": "Feature",
      "properties": {
        "norad_id": 29933,
        "name": "FENGYUN 1C DEB",
        "group": "fengyun-1c-debris",
        "lat": 46.44702435967188,
        "lon": 75.01552049177253,
        "alt_km": 669.5573619454599,
        "timestamp": "2025-12-07T11:27:50.274653+00:00",
        "meta_object_name": "FENGYUN 1C DEB",
        "meta_object_id": "1999-025JF",
        "meta_epoch": "2025-12-06T19:25:15.166848",
        "meta_mean_motion": 14.65552376,
        "meta_eccentricity": 0.00038397,
        "meta_inclination": 98.7501,
        "meta_ra_of_asc_node": 83.6273,
        "meta_arg_of_pericenter": 353.4472,
        "meta_mean_anomaly": 128.9746,
        "meta_ephemeris_type": 0,
        "meta_classification_type": "U",
        "meta_norad_cat_id": 29933,
        "meta_element_set_no": 999,
        "meta_rev_at_epoch": 98418,
        "meta_bstar": 0.0060142301,
        "meta_mean_motion_dot": 0.0003273,
        "meta_mean_motion_ddot": 0,
        "tle_line1": "1 29933U 99025JF  25340.80920332  .00032730  00000+0  60142-2 0  9991",
        "tle_line2": "2 29933  98.7501  83.6273 0003839 353.4472 128.9746 14.65552376984189"
      },
      "geometry": {
        "type": "Point",
        "coordinates": [
          75.01552049177253,
          46.44702435967188
        ]
      }
    },
    {
      "type": "Feature",
      "properties": {
        "norad_id": 29934,
        "name": "FENGYUN 1C DEB",
        "group": "fengyun-1c-debris",
        "lat": 15.399027663073781,
        "lon": 25.448719232880904,
        "alt_km": 702.2297483533921,
        "timestamp": "2025-12-07T11:27:50.274663+00:00",
        "meta_object_name": "FENGYUN 1C DEB",
        "meta_object_id": "1999-025JG",
        "meta_epoch": "2025-12-06T20:37:37.495200",
        "meta_mean_motion": 14.63704806,
        "meta_eccentricity": 0.01006013,
        "meta_inclination": 98.904,
        "meta_ra_of_asc_node": 27.256,
        "meta_arg_of_pericenter": 270.4762,
        "meta_mean_anomaly": 88.4911,
        "meta_ephemeris_type": 0,
        "meta_classification_type": "U",
        "meta_norad_cat_id": 29934,
        "meta_element_set_no": 999,
        "meta_rev_at_epoch": 99686,
        "meta_bstar": 0.0013891555,
        "meta_mean_motion_dot": 7.729e-05,
        "meta_mean_motion_ddot": 0,
        "tle_line1": "1 29934U 99025JG  25340.85946175  .00007729  00000+0  13892-2 0  9990",
        "tle_line2": "2 29934  98.9040  27.2560 0100601 270.4762  88.4911 14.63704806996865"
      },
      "geometry": {
        "type": "Point",
        "coordinates": [
          25.448719232880904,
          15.399027663073781
        ]
      }
    },
    {
      "type": "Feature",
      "properties": {
        "norad_id": 29935,
        "name": "FENGYUN 1C DEB",
        "group": "fengyun-1c-debris",
        "lat": -2.239384028379309,
        "lon": 44.284771651176385,
        "alt_km": 911.5153368395504,
        "timestamp": "2025-12-07T11:27:50.274673+00:00",
        "meta_object_name": "FENGYUN 1C DEB",
        "meta_object_id": "1999-025JH",
        "meta_epoch": "2025-12-06T17:24:41.571360",
        "meta_mean_motion": 14.14233831,
        "meta_eccentricity": 0.01499116,
        "meta_inclination": 98.4622,
        "meta_ra_of_asc_node": 43.2384,
        "meta_arg_of_pericenter": 233.4924,
        "meta_mean_anomaly": 255.5815,
        "meta_ephemeris_type": 0,
        "meta_classification_type": "U",
        "meta_norad_cat_id": 29935,
        "meta_element_set_no": 999,
        "meta_rev_at_epoch": 97457,
        "meta_bstar": 0.00024200397,
        "meta_mean_motion_dot": 4.72e-06,
        "meta_mean_motion_ddot": 0,
        "tle_line1": "1 29935U 99025JH  25340.72548115  .00000472  00000+0  24200-3 0  9993",
        "tle_line2": "2 29935  98.4622  43.2384 0149911 233.4924 255.5815 14.14233831974570"
      },
      "geometry": {
        "type": "Point",
        "coordinates": [
          44.284771651176385,
          -2.239384028379309
        ]
      }
    },
    {
      "type": "Feature",
      "properties": {
        "norad_id": 29936,
        "name": "FENGYUN 1C DEB",
        "group": "fengyun-1c-debris",
        "lat": -2.6761977208039895,
        "lon": 95.24854288749201,
        "alt_km": 850.7561610293797,
        "timestamp": "2025-12-07T11:27:50.274683+00:00",
        "meta_object_name": "FENGYUN 1C DEB",
        "meta_object_id": "1999-025JJ",
        "meta_epoch": "2025-12-06T22:05:31.161120",
        "meta_mean_motion": 14.35299501,
        "meta_eccentricity": 0.01136967,
        "meta_inclination": 98.6562,
        "meta_ra_of_asc_node": 94.2817,
        "meta_arg_of_pericenter": 204.2809,
        "meta_mean_anomaly": 155.2994,
        "meta_ephemeris_type": 0,
        "meta_classification_type": "U",
        "meta_norad_cat_id": 29936,
        "meta_element_set_no": 999,
        "meta_rev_at_epoch": 98847,
        "meta_bstar": 0.00038129852,
        "meta_mean_motion_dot": 1.128e-05,
        "meta_mean_motion_ddot": 0,
        "tle_line1": "1 29936U 99025JJ  25340.92049955  .00001128  00000+0  38130-3 0  9990",
        "tle_line2": "2 29936  98.6562  94.2817 0113696 204.2809 155.2994 14.35299501988479"
      },
      "geometry": {
        "type": "Point",
        "coordinates": [
          95.24854288749201,
          -2.6761977208039895
        ]
      }
    }
  ]
}